[{"OBJECT_NAME":"ONEWEB-0638","OBJECT_ID":"2023-029G","EPOCH":"2026-03-21T15:06:07.397856","MEAN_MOTION":13.14504639,"ECCENTRICITY":0.00012575,"INCLINATION":87.8956,"RA_OF_ASC_NODE":307.2349,"ARG_OF_PERICENTER":100.3825,"MEAN_ANOMALY":259.7447,"EPHEMERIS_TYPE":0,"CLASSIFICATION_TYPE":"U","NORAD_CAT_ID":55802,"ELEMENT_SET_NO":999,"REV_AT_EPOCH":14789,"BSTAR":0.00024846341,"MEAN_MOTION_DOT":1.05e-6,"MEAN_MOTION_DDOT":0},{"OBJECT_NAME":"ONEWEB-0639","OBJECT_ID":"2023-029H","EPOCH":"2026-03-21T14:45:49.680576","MEAN_MOTION":13.19725852,"ECCENTRICITY":0.00026143,"INCLINATION":87.9213,"RA_OF_ASC_NODE":322.4322,"ARG_OF_PERICENTER":95.1388,"MEAN_ANOMALY":265.0044,"EPHEMERIS_TYPE":0,"CLASSIFICATION_TYPE":"U","NORAD_CAT_ID":55803,"ELEMENT_SET_NO":999,"REV_AT_EPOCH":14735,"BSTAR":0.00017506455,"MEAN_MOTION_DOT":8.3e-7,"MEAN_MOTION_DDOT":0},{"OBJECT_NAME":"ONEWEB-0640","OBJECT_ID":"2023-029J","EPOCH":"2026-03-21T13:30:15.498432","MEAN_MOTION":13.14491086,"ECCENTRICITY":0.00014816,"INCLINATION":87.8961,"RA_OF_ASC_NODE":307.2372,"ARG_OF_PERICENTER":113.5824,"MEAN_ANOMALY":246.5462,"EPHEMERIS_TYPE":0,"CLASSIFICATION_TYPE":"U","NORAD_CAT_ID":55804,"ELEMENT_SET_NO":999,"REV_AT_EPOCH":14790,"BSTAR":-0.0029800193,"MEAN_MOTION_DOT":-1.092e-5,"MEAN_MOTION_DDOT":0},{"OBJECT_NAME":"ONEWEB-0641","OBJECT_ID":"2023-029K","EPOCH":"2026-03-21T09:11:27.942720","MEAN_MOTION":13.19726312,"ECCENTRICITY":0.00018565,"INCLINATION":87.921,"RA_OF_ASC_NODE":322.4652,"ARG_OF_PERICENTER":83.567,"MEAN_ANOMALY":276.5674,"EPHEMERIS_TYPE":0,"CLASSIFICATION_TYPE":"U","NORAD_CAT_ID":55805,"ELEMENT_SET_NO":999,"REV_AT_EPOCH":14733,"BSTAR":0.00038522536,"MEAN_MOTION_DOT":1.67e-6,"MEAN_MOTION_DDOT":0},{"OBJECT_NAME":"ONEWEB-0642","OBJECT_ID":"2023-029L","EPOCH":"2026-03-21T09:04:38.879328","MEAN_MOTION":13.19725642,"ECCENTRICITY":0.00025308,"INCLINATION":87.9209,"RA_OF_ASC_NODE":322.4804,"ARG_OF_PERICENTER":87.86,"MEAN_ANOMALY":272.2822,"EPHEMERIS_TYPE":0,"CLASSIFICATION_TYPE":"U","NORAD_CAT_ID":55806,"ELEMENT_SET_NO":999,"REV_AT_EPOCH":14732,"BSTAR":0.00031600914,"MEAN_MOTION_DOT":1.39e-6,"MEAN_MOTION_DDOT":0},{"OBJECT_NAME":"ONEWEB-0643","OBJECT_ID":"2023-029M","EPOCH":"2026-03-21T14:36:27.290880","MEAN_MOTION":13.14503648,"ECCENTRICITY":0.00023675,"INCLINATION":87.8957,"RA_OF_ASC_NODE":307.2169,"ARG_OF_PERICENTER":82.7753,"MEAN_ANOMALY":277.3646,"EPHEMERIS_TYPE":0,"CLASSIFICATION_TYPE":"U","NORAD_CAT_ID":55807,"ELEMENT_SET_NO":999,"REV_AT_EPOCH":14788,"BSTAR":0.00043803133,"MEAN_MOTION_DOT":1.75e-6,"MEAN_MOTION_DDOT":0},{"OBJECT_NAME":"ONEWEB-0644","OBJECT_ID":"2023-029N","EPOCH":"2026-03-21T08:57:49.581792","MEAN_MOTION":13.19726299,"ECCENTRICITY":0.0002063,"INCLINATION":87.9202,"RA_OF_ASC_NODE":322.4872,"ARG_OF_PERICENTER":83.7864,"MEAN_ANOMALY":276.3504,"EPHEMERIS_TYPE":0,"CLASSIFICATION_TYPE":"U","NORAD_CAT_ID":55808,"ELEMENT_SET_NO":999,"REV_AT_EPOCH":14732,"BSTAR":0.00030870755,"MEAN_MOTION_DOT":1.37e-6,"MEAN_MOTION_DDOT":0},{"OBJECT_NAME":"ONEWEB-0645","OBJECT_ID":"2023-029P","EPOCH":"2026-03-21T14:57:11.201184","MEAN_MOTION":13.19726036,"ECCENTRICITY":0.00019636,"INCLINATION":87.921,"RA_OF_ASC_NODE":322.4307,"ARG_OF_PERICENTER":95.7124,"MEAN_ANOMALY":264.4233,"EPHEMERIS_TYPE":0,"CLASSIFICATION_TYPE":"U","NORAD_CAT_ID":55809,"ELEMENT_SET_NO":999,"REV_AT_EPOCH":14735,"BSTAR":0.00013607771,"MEAN_MOTION_DOT":6.7e-7,"MEAN_MOTION_DDOT":0},{"OBJECT_NAME":"ONEWEB-0646","OBJECT_ID":"2023-029Q","EPOCH":"2026-03-21T15:22:12.165312","MEAN_MOTION":13.19724892,"ECCENTRICITY":0.00020198,"INCLINATION":87.9211,"RA_OF_ASC_NODE":322.4274,"ARG_OF_PERICENTER":83.1369,"MEAN_ANOMALY":276.9994,"EPHEMERIS_TYPE":0,"CLASSIFICATION_TYPE":"U","NORAD_CAT_ID":55810,"ELEMENT_SET_NO":999,"REV_AT_EPOCH":14734,"BSTAR":3.5940793e-5,"MEAN_MOTION_DOT":2.7e-7,"MEAN_MOTION_DDOT":0},{"OBJECT_NAME":"ONEWEB-0648","OBJECT_ID":"2023-029R","EPOCH":"2026-03-21T13:50:47.019840","MEAN_MOTION":13.14503533,"ECCENTRICITY":0.00024293,"INCLINATION":87.8968,"RA_OF_ASC_NODE":307.1887,"ARG_OF_PERICENTER":101.8293,"MEAN_ANOMALY":258.3109,"EPHEMERIS_TYPE":0,"CLASSIFICATION_TYPE":"U","NORAD_CAT_ID":55811,"ELEMENT_SET_NO":999,"REV_AT_EPOCH":14788,"BSTAR":-0.00054715295,"MEAN_MOTION_DOT":-1.9e-6,"MEAN_MOTION_DDOT":0},{"OBJECT_NAME":"ONEWEB-0649","OBJECT_ID":"2023-029S","EPOCH":"2026-03-21T14:09:24.964992","MEAN_MOTION":13.19725504,"ECCENTRICITY":0.0001893,"INCLINATION":87.9211,"RA_OF_ASC_NODE":322.4346,"ARG_OF_PERICENTER":89.8509,"MEAN_ANOMALY":270.284,"EPHEMERIS_TYPE":0,"CLASSIFICATION_TYPE":"U","NORAD_CAT_ID":55812,"ELEMENT_SET_NO":999,"REV_AT_EPOCH":14737,"BSTAR":-3.7091291e-5,"MEAN_MOTION_DOT":-2.0e-8,"MEAN_MOTION_DDOT":0},{"OBJECT_NAME":"ONEWEB-0650","OBJECT_ID":"2023-029T","EPOCH":"2026-03-21T14:02:35.761632","MEAN_MOTION":13.19724903,"ECCENTRICITY":0.00021594,"INCLINATION":87.9211,"RA_OF_ASC_NODE":322.4385,"ARG_OF_PERICENTER":86.8971,"MEAN_ANOMALY":273.2409,"EPHEMERIS_TYPE":0,"CLASSIFICATION_TYPE":"U","NORAD_CAT_ID":55813,"ELEMENT_SET_NO":999,"REV_AT_EPOCH":14734,"BSTAR":-7.369846e-5,"MEAN_MOTION_DOT":-1.7e-7,"MEAN_MOTION_DDOT":0},{"OBJECT_NAME":"ONEWEB-0652","OBJECT_ID":"2023-029U","EPOCH":"2026-03-21T13:23:22.725024","MEAN_MOTION":13.14503351,"ECCENTRICITY":0.00015562,"INCLINATION":87.8957,"RA_OF_ASC_NODE":307.2072,"ARG_OF_PERICENTER":78.581,"MEAN_ANOMALY":281.5494,"EPHEMERIS_TYPE":0,"CLASSIFICATION_TYPE":"U","NORAD_CAT_ID":55814,"ELEMENT_SET_NO":999,"REV_AT_EPOCH":14785,"BSTAR":7.3896097e-5,"MEAN_MOTION_DOT":4.0e-7,"MEAN_MOTION_DDOT":0},{"OBJECT_NAME":"ONEWEB-0653","OBJECT_ID":"2023-029V","EPOCH":"2026-03-21T14:50:09.117312","MEAN_MOTION":13.14503788,"ECCENTRICITY":0.00014941,"INCLINATION":87.8967,"RA_OF_ASC_NODE":307.1867,"ARG_OF_PERICENTER":84.1865,"MEAN_ANOMALY":275.9435,"EPHEMERIS_TYPE":0,"CLASSIFICATION_TYPE":"U","NORAD_CAT_ID":55815,"ELEMENT_SET_NO":999,"REV_AT_EPOCH":14789,"BSTAR":0.0006562172,"MEAN_MOTION_DOT":2.56e-6,"MEAN_MOTION_DDOT":0},{"OBJECT_NAME":"ONEWEB-0654","OBJECT_ID":"2023-029W","EPOCH":"2026-03-21T14:43:17.760000","MEAN_MOTION":13.14503933,"ECCENTRICITY":0.00013525,"INCLINATION":87.8957,"RA_OF_ASC_NODE":307.1863,"ARG_OF_PERICENTER":77.0515,"MEAN_ANOMALY":283.0766,"EPHEMERIS_TYPE":0,"CLASSIFICATION_TYPE":"U","NORAD_CAT_ID":55816,"ELEMENT_SET_NO":999,"REV_AT_EPOCH":14791,"BSTAR":0.00055025658,"MEAN_MOTION_DOT":2.17e-6,"MEAN_MOTION_DDOT":0},{"OBJECT_NAME":"ONEWEB-0656","OBJECT_ID":"2023-029X","EPOCH":"2026-03-21T13:17:01.069440","MEAN_MOTION":13.20770935,"ECCENTRICITY":0.00012687,"INCLINATION":87.9155,"RA_OF_ASC_NODE":291.9271,"ARG_OF_PERICENTER":80.2732,"MEAN_ANOMALY":279.8545,"EPHEMERIS_TYPE":0,"CLASSIFICATION_TYPE":"U","NORAD_CAT_ID":55817,"ELEMENT_SET_NO":999,"REV_AT_EPOCH":14958,"BSTAR":-0.0001769393,"MEAN_MOTION_DOT":-5.9e-7,"MEAN_MOTION_DDOT":0}]
