ONEWEB-0638             
1 55802U 23029G   26080.62925229  .00000105  00000+0  24846-3 0  9991
2 55802  87.8956 307.2349 0001257 100.3825 259.7447 13.14504639147890
ONEWEB-0639             
1 55803U 23029H   26080.61515834  .00000083  00000+0  17506-3 0  9998
2 55803  87.9213 322.4322 0002614  95.1388 265.0044 13.19725852147352
ONEWEB-0640             
1 55804U 23029J   26080.56267938 -.00001092  00000+0 -29800-2 0  9994
2 55804  87.8961 307.2372 0001481 113.5824 246.5462 13.14491086147902
ONEWEB-0641             
1 55805U 23029K   26080.38296230  .00000167  00000+0  38523-3 0  9995
2 55805  87.9210 322.4652 0001856  83.5670 276.5674 13.19726312147335
ONEWEB-0642             
1 55806U 23029L   26080.37822777  .00000139  00000+0  31601-3 0  9995
2 55806  87.9209 322.4804 0002530  87.8600 272.2822 13.19725642147325
ONEWEB-0643             
1 55807U 23029M   26080.60864920  .00000175  00000+0  43803-3 0  9995
2 55807  87.8957 307.2169 0002367  82.7753 277.3646 13.14503648147887
ONEWEB-0644             
1 55808U 23029N   26080.37349053  .00000137  00000+0  30871-3 0  9994
2 55808  87.9202 322.4872 0002063  83.7864 276.3504 13.19726299147324
ONEWEB-0645             
1 55809U 23029P   26080.62304631  .00000067  00000+0  13608-3 0  9997
2 55809  87.9210 322.4307 0001963  95.7124 264.4233 13.19726036147356
ONEWEB-0646             
1 55810U 23029Q   26080.64041858  .00000027  00000+0  35941-4 0  9991
2 55810  87.9211 322.4274 0002019  83.1369 276.9994 13.19724892147346
ONEWEB-0648             
1 55811U 23029R   26080.57693310 -.00000190  00000+0 -54715-3 0  9992
2 55811  87.8968 307.1887 0002429 101.8293 258.3109 13.14503533147887
ONEWEB-0649             
1 55812U 23029S   26080.58987228 -.00000002  00000+0 -37091-4 0  9999
2 55812  87.9211 322.4346 0001893  89.8509 270.2840 13.19725504147377
ONEWEB-0650             
1 55813U 23029T   26080.58513613 -.00000017  00000+0 -73698-4 0  9992
2 55813  87.9211 322.4385 0002159  86.8971 273.2409 13.19724903147340
ONEWEB-0652             
1 55814U 23029U   26080.55790191  .00000040  00000+0  73896-4 0  9992
2 55814  87.8957 307.2072 0001556  78.5810 281.5494 13.14503351147850
ONEWEB-0653             
1 55815U 23029V   26080.61816108  .00000256  00000+0  65622-3 0  9993
2 55815  87.8967 307.1867 0001494  84.1865 275.9435 13.14503788147897
ONEWEB-0654             
1 55816U 23029W   26080.61340000  .00000217  00000+0  55026-3 0  9991
2 55816  87.8957 307.1863 0001352  77.0515 283.0766 13.14503933147911
ONEWEB-0656             
1 55817U 23029X   26080.55348460 -.00000059  00000+0 -17694-3 0  9998
2 55817  87.9155 291.9271 0001268  80.2732 279.8545 13.20770935149587
